{"type": "FeatureCollection", "features": [ {"type": "Feature", "properties": {"norad_id": 43010, "name": "FENGYUN 3D", "group": "weather", "lat": 17.724272766591362, "lon": -56.28530614572263, "alt_km": 827.2799995937476, "timestamp": "2025-12-06T09:34:16.561642+00:00", "meta": {"OBJECT_NAME": "FENGYUN 3D", "OBJECT_ID": "2017-072A", "EPOCH": "2025-12-05T23:20:17.360160", "MEAN_MOTION": 14.19680836, "ECCENTRICITY": 7.045e-05, "INCLINATION": 98.9885, "RA_OF_ASC_NODE": 306.1817, "ARG_OF_PERICENTER": 206.137, "MEAN_ANOMALY": 153.977, "EPHEMERIS_TYPE": 0, "CLASSIFICATION_TYPE": "U", "NORAD_CAT_ID": 43010, "ELEMENT_SET_NO": 999, "REV_AT_EPOCH": 41757, "BSTAR": 0.00012280621, "MEAN_MOTION_DOT": 2.14e-06, "MEAN_MOTION_DDOT": 0}, "tle": {"line1": "1 43010U 17072A   25339.97242315  .00000214  00000+0  12281-3 0  9993", "line2": "2 43010  98.9885 306.1817 0000704 206.1370 153.9770 14.19680836417575"}}, "geometry": {"type": "Point", "coordinates": [-56.28530614572263, 17.724272766591362]}}, {"type": "Feature", "properties": {"norad_id": 43013, "name": "NOAA 20 (JPSS-1)", "group": "weather", "lat": 5.667217151086802, "lon": 97.64177041979332, "alt_km": 828.8103738692434, "timestamp": "2025-12-06T09:34:16.561653+00:00", "meta": {"OBJECT_NAME": "NOAA 20 (JPSS-1)", "OBJECT_ID": "2017-073A", "EPOCH": "2025-12-05T22:36:13.470912", "MEAN_MOTION": 14.19522852, "ECCENTRICITY": 0.00020992, "INCLINATION": 98.7589, "RA_OF_ASC_NODE": 276.3133, "ARG_OF_PERICENTER": 96.8718, "MEAN_ANOMALY": 263.2697, "EPHEMERIS_TYPE": 0, "CLASSIFICATION_TYPE": "U", "NORAD_CAT_ID": 43013, "ELEMENT_SET_NO": 999, "REV_AT_EPOCH": 41705, "BSTAR": 0.00010661768, "MEAN_MOTION_DOT": 1.81e-06, "MEAN_MOTION_DDOT": 0}, "tle": {"line1": "1 43013U 17073A   25339.94182258  .00000181  00000+0  10662-3 0  9997", "line2": "2 43013  98.7589 276.3133 0002099  96.8718 263.2697 14.19522852417054"}}, "geometry": {"type": "Point", "coordinates": [97.64177041979332, 5.667217151086802]}}, {"type": "Feature", "properties": {"norad_id": 43226, "name": "GOES 17", "group": "weather", "lat": 0.29684914079937336, "lon": 129.47263118616036, "alt_km": 35798.15037021489, "timestamp": "2025-12-06T09:34:16.561665+00:00", "meta": {"OBJECT_NAME": "GOES 17", "OBJECT_ID": "2018-022A", "EPOCH": "2025-12-05T21:49:55.013664", "MEAN_MOTION": 1.00270987, "ECCENTRICITY": 0.00035128, "INCLINATION": 0.4412, "RA_OF_ASC_NODE": 89.2602, "ARG_OF_PERICENTER": 183.2356, "MEAN_ANOMALY": 40.4433, "EPHEMERIS_TYPE": 0, "CLASSIFICATION_TYPE": "U", "NORAD_CAT_ID": 43226, "ELEMENT_SET_NO": 999, "REV_AT_EPOCH": 2848, "BSTAR": 0, "MEAN_MOTION_DOT": -1.73e-06, "MEAN_MOTION_DDOT": 0}, "tle": {"line1": "1 43226U 18022A   25339.90966451 -.00000173  00000+0  00000+0 0  9992", "line2": "2 43226   0.4412  89.2602 0003512 183.2356  40.4433  1.00270987 28480"}}, "geometry": {"type": "Point", "coordinates": [129.47263118616036, 0.29684914079937336]}}, {"type": "Feature", "properties": {"norad_id": 43491, "name": "FENGYUN 2H", "group": "weather", "lat": -1.5412427451377444, "lon": -61.63758929077732, "alt_km": 35778.825825403655, "timestamp": "2025-12-06T09:34:16.561677+00:00", "meta": {"OBJECT_NAME": "FENGYUN 2H", "OBJECT_ID": "2018-050A", "EPOCH": "2025-12-05T20:55:16.016160", "MEAN_MOTION": 1.00271271, "ECCENTRICITY": 0.00029396, "INCLINATION": 2.5321, "RA_OF_ASC_NODE": 81.4064, "ARG_OF_PERICENTER": 164.5694, "MEAN_ANOMALY": 222.1234, "EPHEMERIS_TYPE": 0, "CLASSIFICATION_TYPE": "U", "NORAD_CAT_ID": 43491, "ELEMENT_SET_NO": 999, "REV_AT_EPOCH": 2750, "BSTAR": 0, "MEAN_MOTION_DOT": -1.22e-06, "MEAN_MOTION_DDOT": 0}, "tle": {"line1": "1 43491U 18050A   25339.87171315 -.00000122  00000+0  00000+0 0  9994", "line2": "2 43491   2.5321  81.4064 0002939 164.5694 222.1234  1.00271271 27508"}}, "geometry": {"type": "Point", "coordinates": [-61.63758929077732, -1.5412427451377444]}}, {"type": "Feature", "properties": {"norad_id": 43689, "name": "METOP-C", "group": "weather", "lat": -81.29998363292589, "lon": 127.556884384952, "alt_km": 828.5105878808426, "timestamp": "2025-12-06T09:34:16.561688+00:00", "meta": {"OBJECT_NAME": "METOP-C", "OBJECT_ID": "2018-087A", "EPOCH": "2025-12-05T22:10:06.771072", "MEAN_MOTION": 14.2150786, "ECCENTRICITY": 0.00016193, "INCLINATION": 98.6939, "RA_OF_ASC_NODE": 37.7974, "ARG_OF_PERICENTER": 53.8046, "MEAN_ANOMALY": 306.3281, "EPHEMERIS_TYPE": 0, "CLASSIFICATION_TYPE": "U", "NORAD_CAT_ID": 43689, "ELEMENT_SET_NO": 999, "REV_AT_EPOCH": 36737, "BSTAR": 0.00014747547, "MEAN_MOTION_DOT": 2.79e-06, "MEAN_MOTION_DDOT": 0}, "tle": {"line1": "1 43689U 18087A   25339.92368948  .00000279  00000+0  14748-3 0  9999", "line2": "2 43689  98.6939  37.7974 0001619  53.8046 306.3281 14.21507860367379"}}, "geometry": {"type": "Point", "coordinates": [127.556884384952, -81.29998363292589]}}, {"type": "Feature", "properties": {"norad_id": 43823, "name": "GEO-KOMPSAT-2A", "group": "weather", "lat": -0.039909734556222945, "lon": -12.733151772134363, "alt_km": 35787.41670351528, "timestamp": "2025-12-06T09:34:16.561700+00:00", "meta": {"OBJECT_NAME": "GEO-KOMPSAT-2A", "OBJECT_ID": "2018-100A", "EPOCH": "2025-12-05T21:09:14.676768", "MEAN_MOTION": 1.00272052, "ECCENTRICITY": 3.465e-05, "INCLINATION": 0.0607, "RA_OF_ASC_NODE": 119.8643, "ARG_OF_PERICENTER": 71.2478, "MEAN_ANOMALY": 329.3973, "EPHEMERIS_TYPE": 0, "CLASSIFICATION_TYPE": "U", "NORAD_CAT_ID": 43823, "ELEMENT_SET_NO": 999, "REV_AT_EPOCH": 2569, "BSTAR": 0, "MEAN_MOTION_DOT": -3.34e-06, "MEAN_MOTION_DDOT": 0}, "tle": {"line1": "1 43823U 18100A   25339.88141987 -.00000334  00000+0  00000+0 0  9997", "line2": "2 43823   0.0607 119.8643 0000346  71.2478 329.3973  1.00272052 25696"}}, "geometry": {"type": "Point", "coordinates": [-12.733151772134363, -0.039909734556222945]}}, {"type": "Feature", "properties": {"norad_id": 44387, "name": "METEOR-M2 2", "group": "weather", "lat": -76.27553342753173, "lon": -0.05696441942255364, "alt_km": 818.5532484412261, "timestamp": "2025-12-06T09:34:16.561711+00:00", "meta": {"OBJECT_NAME": "METEOR-M2 2", "OBJECT_ID": "2019-038A", "EPOCH": "2025-12-05T22:08:31.705152", "MEAN_MOTION": 14.2428702, "ECCENTRICITY": 0.0001015, "INCLINATION": 98.8966, "RA_OF_ASC_NODE": 319.5683, "ARG_OF_PERICENTER": 161.9196, "MEAN_ANOMALY": 198.2019, "EPHEMERIS_TYPE": 0, "CLASSIFICATION_TYPE": "U", "NORAD_CAT_ID": 44387, "ELEMENT_SET_NO": 999, "REV_AT_EPOCH": 33378, "BSTAR": 0.00015821584, "MEAN_MOTION_DOT": 3.19e-06, "MEAN_MOTION_DDOT": 0}, "tle": {"line1": "1 44387U 19038A   25339.92258918  .00000319  00000+0  15822-3 0  9996", "line2": "2 44387  98.8966 319.5683 0001015 161.9196 198.2019 14.24287020333783"}}, "geometry": {"type": "Point", "coordinates": [-0.05696441942255364, -76.27553342753173]}}, {"type": "Feature", "properties": {"norad_id": 47719, "name": "ARKTIKA-M 1", "group": "weather", "lat": 60.697131308662826, "lon": -159.3296723679934, "alt_km": 36370.48361144939, "timestamp": "2025-12-06T09:34:16.561731+00:00", "meta": {"OBJECT_NAME": "ARKTIKA-M 1", "OBJECT_ID": "2021-016A", "EPOCH": "2025-12-01T02:41:41.634816", "MEAN_MOTION": 2.00613156, "ECCENTRICITY": 0.71974708, "INCLINATION": 63.1756, "RA_OF_ASC_NODE": 85.6045, "ARG_OF_PERICENTER": 269.084, "MEAN_ANOMALY": 15.7076, "EPHEMERIS_TYPE": 0, "CLASSIFICATION_TYPE": "U", "NORAD_CAT_ID": 47719, "ELEMENT_SET_NO": 999, "REV_AT_EPOCH": 3481, "BSTAR": 0, "MEAN_MOTION_DOT": -1.2e-07, "MEAN_MOTION_DDOT": 0}, "tle": {"line1": "1 47719U 21016A   25335.11228744 -.00000012  00000+0  00000+0 0  9997", "line2": "2 47719  63.1756  85.6045 7197470 269.0840  15.7076  2.00613156 34816"}}, "geometry": {"type": "Point", "coordinates": [-159.3296723679934, 60.697131308662826]}}, {"type": "Feature", "properties": {"norad_id": 49008, "name": "FENGYUN 3E", "group": "weather", "lat": -19.460032926595275, "lon": -15.886251830273283, "alt_km": 830.4292463732918, "timestamp": "2025-12-06T09:34:16.561746+00:00", "meta": {"OBJECT_NAME": "FENGYUN 3E", "OBJECT_ID": "2021-062A", "EPOCH": "2025-12-05T23:30:59.017536", "MEAN_MOTION": 14.19878671, "ECCENTRICITY": 6.548e-05, "INCLINATION": 98.7476, "RA_OF_ASC_NODE": 340.5812, "ARG_OF_PERICENTER": 309.874, "MEAN_ANOMALY": 50.2379, "EPHEMERIS_TYPE": 0, "CLASSIFICATION_TYPE": "U", "NORAD_CAT_ID": 49008, "ELEMENT_SET_NO": 999, "REV_AT_EPOCH": 22916, "BSTAR": 5.632318e-05, "MEAN_MOTION_DOT": 7.6e-07, "MEAN_MOTION_DDOT": 0}, "tle": {"line1": "1 49008U 21062A   25339.97984974  .00000076  00000+0  56323-4 0  9996", "line2": "2 49008  98.7476 340.5812 0000654 309.8740  50.2379 14.19878671229161"}}, "geometry": {"type": "Point", "coordinates": [-15.886251830273283, -19.460032926595275]}}, {"type": "Feature", "properties": {"norad_id": 51850, "name": "GOES 18", "group": "weather", "lat": -0.009061768142081508, "lon": 81.9897164248252, "alt_km": 35789.66520690538, "timestamp": "2025-12-06T09:34:16.561759+00:00", "meta": {"OBJECT_NAME": "GOES 18", "OBJECT_ID": "2022-021A", "EPOCH": "2025-12-05T18:10:55.214400", "MEAN_MOTION": 1.00268817, "ECCENTRICITY": 7.332e-05, "INCLINATION": 0.0076, "RA_OF_ASC_NODE": 206.1196, "ARG_OF_PERICENTER": 80.8491, "MEAN_ANOMALY": 283.5654, "EPHEMERIS_TYPE": 0, "CLASSIFICATION_TYPE": "U", "NORAD_CAT_ID": 51850, "ELEMENT_SET_NO": 999, "REV_AT_EPOCH": 465, "BSTAR": 0, "MEAN_MOTION_DOT": 1.07e-06, "MEAN_MOTION_DDOT": 0}, "tle": {"line1": "1 51850U 22021A   25339.75758350  .00000107  00000+0  00000+0 0  9994", "line2": "2 51850   0.0076 206.1196 0000733  80.8491 283.5654  1.00268817  4653"}}, "geometry": {"type": "Point", "coordinates": [81.9897164248252, -0.009061768142081508]}}]}